NORAD_CAT_ID,OBJECT_NAME,OBJECT_TYPE,EPOCH,MEAN_MOTION,ECCENTRICITY,INCLINATION,RA_OF_ASC_NODE,ARG_OF_PERICENTER,MEAN_ANOMALY,BSTAR,MEAN_MOTION_DOT,MEAN_MOTION_DDOT,TLE_LINE0,TLE_LINE1,TLE_LINE2,SEMIMAJOR_AXIS,PERIOD,APOGEE,PERIGEE,DECAYED
49765.0,STARLINK-3227,PAYLOAD,2022-11-19 19:19:09,15.0884796,0.0002385,53.2153,152.5535,43.8616,316.2565,0.00013857,1.918e-05,0.0,0 STARLINK-3227,1 49765U 21115AT  22323.80496708  .00001918  00000-0  13857-3 0  9991,2 49765  53.2153 152.5535 0002385  43.8616 316.2565 15.08847960 53637,6917.856,95.437,541.371,538.071,0.0
49765.0,STARLINK-3227,PAYLOAD,2022-11-20 12:48:24,15.08839062,0.0002075,53.2154,149.2833,18.3627,341.744,1.4444e-05,-5.8e-07,0.0,0 STARLINK-3227,1 49765U 21115AT  22324.53361618 -.00000058  00000-0  14444-4 0  9992,2 49765  53.2154 149.2833 0002075  18.3627 341.7440 15.08839062 54851,6917.8830000000025,95.438,541.184,538.313,0.0
49765.0,STARLINK-3227,PAYLOAD,2022-11-20 19:09:57,15.08839228,0.0002388,53.2151,148.0937,43.0772,317.0407,-7.1828e-06,-4.03e-06,0.0,0 STARLINK-3227,1 49765U 21115AT  22324.79857681 -.00000403  00000-0 -71828-5 0  9995,2 49765  53.2151 148.0937 0002388  43.0772 317.0407 15.08839228 53787,6917.8830000000025,95.438,541.4,538.096,0.0
49765.0,STARLINK-3227,PAYLOAD,2022-11-21 11:03:47,15.08865322,0.0002271,53.2152,145.1191,44.5684,315.5491,-0.00028681,-4.853e-05,0.0,0 STARLINK-3227,1 49765U 21115AT  22325.46097195 -.00004853  00000-0 -28681-3 0  9996,2 49765  53.2152 145.1191 0002271  44.5684 315.5491 15.08865322 54991,6917.803000000001,95.436,541.239,538.097,0.0
49765.0,STARLINK-3227,PAYLOAD,2022-11-21 12:39:11,15.08864864,0.0002238,53.215,144.8214,40.792,319.3239,-0.00029801,-5.031e-05,0.0,0 STARLINK-3227,1 49765U 21115AT  22325.52721166 -.00005031  00000-0 -29801-3 0  9999,2 49765  53.2150 144.8214 0002238  40.7920 319.3239 15.08864864 53895,6917.804,95.436,541.2180000000002,538.121,0.0
49765.0,STARLINK-3227,PAYLOAD,2022-11-21 15:49:58,15.08771079,0.0002884,53.215,144.2269,54.222,305.904,0.00095708,0.00014948,0.0,0 STARLINK-3227,1 49765U 21115AT  22325.65970760  .00014948  00000-0  95708-3 0  9993,2 49765  53.2150 144.2269 0002884  54.2220 305.9040 15.08771079 55022,6918.090999999999,95.442,541.951,537.961,0.0
49765.0,STARLINK-3227,PAYLOAD,2022-11-21 19:00:43,15.08859879,0.0002323,53.2153,143.6322,44.7724,315.3456,-0.00017631,-3.095e-05,0.0,0 STARLINK-3227,1 49765U 21115AT  22325.79216765 -.00003095  00000-0 -17631-3 0  9998,2 49765  53.2153 143.6322 0002323  44.7724 315.3456 15.08859879 53938,6917.82,95.436,541.2919999999998,538.078,0.0
49765.0,STARLINK-3227,PAYLOAD,2022-11-22 10:54:34,15.088433600000002,0.0002422,53.2153,140.6584,45.7215,314.3975,9.3732e-05,1.204e-05,0.0,0 STARLINK-3227,1 49765U 21115AT  22326.45457009  .00001204  00000-0  93732-4 0  9995,2 49765  53.2153 140.6584 0002422  45.7215 314.3975 15.08843360 55149,6917.87,95.437,541.411,538.06,0.0
49765.0,STARLINK-3227,PAYLOAD,2022-11-22 17:16:07,15.08836216,0.0002248,53.2159,139.4674,52.9099,307.2098,2.8306e-05,1.62e-06,0.0,0 STARLINK-3227,1 49765U 21115AT  22326.71953650  .00000162  00000-0  28306-4 0  9994,2 49765  53.2159 139.4674 0002248  52.9099 307.2098 15.08836216 55180,6917.892,95.438,541.312,538.202,0.0
49765.0,STARLINK-3227,PAYLOAD,2022-11-22 18:51:31,15.08832613,0.0002364,53.2153,139.1705,47.0732,313.0458,2.4214e-06,-2.5e-06,0.0,0 STARLINK-3227,1 49765U 21115AT  22326.78577958 -.00000250  00000-0  24214-5 0  9998,2 49765  53.2153 139.1705 0002364  47.0732 313.0458 15.08832613 54084,6917.903,95.438,541.403,538.133,0.0
49765.0,STARLINK-3227,PAYLOAD,2022-11-23 12:20:46,15.08834933,0.0002392,53.2154,135.8993,45.5087,314.61,-4.0999e-05,-9.41e-06,0.0,0 STARLINK-3227,1 49765U 21115AT  22327.51442276 -.00000941  00000-0 -40999-4 0  9999,2 49765  53.2154 135.8993 0002392  45.5087 314.6100 15.08834933 54194,6917.896,95.438,541.4159999999998,538.106,0.0
49765.0,STARLINK-3227,PAYLOAD,2022-11-23 17:06:55,15.08836421,0.0002381,53.2156,135.0071,46.5443,313.5747,-2.8595e-05,-7.43e-06,0.0,0 STARLINK-3227,1 49765U 21115AT  22327.71314177 -.00000743  00000-0 -28595-4 0  9997,2 49765  53.2156 135.0071 0002381  46.5443 313.5747 15.08836421 54223,6917.891,95.438,541.403,538.109,0.0
49765.0,STARLINK-3227,PAYLOAD,2022-11-24 04:14:37,15.08838564,0.0002422,53.2157,132.9257,46.1077,314.0115,-6.9169000000000015e-06,-3.98e-06,0.0,0 STARLINK-3227,1 49765U 21115AT  22328.17682068 -.00000398  00000-0 -69169-5 0  9994,2 49765  53.2157 132.9257 0002422  46.1077 314.0115 15.08838564 55407,6917.885,95.438,541.425,538.0740000000002,0.0
49765.0,STARLINK-3227,PAYLOAD,2022-11-24 10:36:09,15.08833449,0.0002437,53.2158,131.7369,47.1297,312.99,7.7519e-05,9.45e-06,0.0,0 STARLINK-3227,1 49765U 21115AT  22328.44178117  .00000945  00000-0  77519-4 0  9992,2 49765  53.2158 131.7369 0002437  47.1297 312.9900 15.08833449 54337,6917.9,95.438,541.451,538.08,0.0
49765.0,STARLINK-3227,PAYLOAD,2022-11-24 18:33:05,15.08835128,0.0002465,53.216,130.2503,47.8206,312.2995,8.5855e-05,1.078e-05,0.0,0 STARLINK-3227,1 49765U 21115AT  22328.77298101  .00001078  00000-0  85855-4 0  9994,2 49765  53.2160 130.2503 0002465  47.8206 312.2995 15.08835128 54380,6917.895,95.438,541.466,538.055,0.0
49765.0,STARLINK-3227,PAYLOAD,2022-11-25 10:26:56,15.08841176,0.0002487,53.216,127.2763,48.8289,311.2917,9.8741e-05,1.283e-05,0.0,0 STARLINK-3227,1 49765U 21115AT  22329.43537803  .00001283  00000-0  98741-4 0  9999,2 49765  53.2160 127.2763 0002487  48.8289 311.2917 15.08841176 55597,6917.877,95.437,541.462,538.021,0.0
49765.0,STARLINK-3227,PAYLOAD,2022-11-25 19:59:15,15.08846538,0.0002499,53.2157,125.4918,49.4606,310.6603,0.00013547,1.869e-05,0.0,0 STARLINK-3227,1 49765U 21115AT  22329.83281376  .00001869  00000-0  13547-3 0  9994,2 49765  53.2157 125.4918 0002499  49.4606 310.6603 15.08846538 54544,6917.86,95.437,541.4540000000002,537.997,0.0
49765.0,STARLINK-3227,PAYLOAD,2022-11-26 03:56:09,15.08868846,0.0001821,53.2163,124.0048,55.7137,304.4028,-0.00011891,-2.182e-05,0.0,0 STARLINK-3227,1 49765U 21115AT  22330.16400034 -.00002182  00000-0 -11891-3 0  9997,2 49765  53.2163 124.0048 0001821  55.7137 304.4028 15.08868846 55704,6917.792,95.436,540.9169999999998,538.3969999999998,0.0
49765.0,STARLINK-3227,PAYLOAD,2022-11-26 10:17:43,15.0881856,0.0002019,53.2162,122.8154,49.5773,310.5395,0.00033532,5.049e-05,0.0,0 STARLINK-3227,1 49765U 21115AT  22330.42898147  .00005049  00000-0  33532-3 0  9991,2 49765  53.2162 122.8154 0002019  49.5773 310.5395 15.08818560 55741,6917.946,95.439,541.2080000000002,538.414,0.0
49765.0,STARLINK-3227,PAYLOAD,2022-11-26 19:50:02,15.08842876,0.0002489,53.2156,121.0315,50.7474,309.3739,4.194e-05,3.79e-06,0.0,0 STARLINK-3227,1 49765U 21115AT  22330.82641536  .00000379  00000-0  41940-4 0  9997,2 49765  53.2156 121.0315 0002489  50.7474 309.3739 15.08842876 55809,6917.871999999999,95.437,541.4580000000002,538.015,0.0
49765.0,STARLINK-3227,PAYLOAD,2022-11-27 10:08:30,15.08844372,0.0002506,53.2155,118.355,51.912,308.2098,1.8664e-05,9e-08,0.0,0 STARLINK-3227,1 49765U 21115AT  22331.42257351  .00000009  00000-0  18664-4 0  9999,2 49765  53.2155 118.3550 0002506  51.9120 308.2098 15.08844372 54784,6917.8669999999975,95.437,541.466,537.998,0.0
49765.0,STARLINK-3227,PAYLOAD,2022-11-27 16:30:03,15.08839312,0.0002553,53.216,117.1658,50.2698,309.8519,-4.7977e-05,-1.052e-05,0.0,0 STARLINK-3227,1 49765U 21115AT  22331.68753849 -.00001052  00000-0 -47977-4 0  9990,2 49765  53.2160 117.1658 0002553  50.2698 309.8519 15.08839312 55931,6917.882,95.438,541.514,537.981,0.0
49765.0,STARLINK-3227,PAYLOAD,2022-11-28 09:59:17,15.0883641,0.0002483,53.2162,113.8947,51.1747,308.9467,5.286600000000001e-05,5.53e-06,0.0,0 STARLINK-3227,1 49765U 21115AT  22332.41617645  .00000553  00000-0  52866-4 0  9991,2 49765  53.2162 113.8947 0002483  51.1747 308.9467 15.08836410 54931,6917.891,95.438,541.474,538.039,0.0
49765.0,STARLINK-3227,PAYLOAD,2022-11-29 01:53:08,15.0884265,0.0002502,53.2159,110.9207,50.4223,309.6989,5.7241e-05,6.23e-06,0.0,0 STARLINK-3227,1 49765U 21115AT  22333.07857187  .00000623  00000-0  57241-4 0  9991,2 49765  53.2159 110.9207 0002502  50.4223 309.6989 15.08842650 56142,6917.871999999999,95.437,541.4680000000002,538.006,0.0
49765.0,STARLINK-3227,PAYLOAD,2022-11-29 09:50:05,15.08827229,0.0002409,53.2161,109.4342,51.7762,308.3447,3.7323e-05,3.05e-06,0.0,0 STARLINK-3227,1 49765U 21115AT  22333.40978414  .00000305  00000-0  37323-4 0  9991,2 49765  53.2161 109.4342 0002409  51.7762 308.3447 15.08827229 56191,6917.919,95.438,541.451,538.118,0.0
49765.0,STARLINK-3227,PAYLOAD,2022-11-29 13:00:51,15.08832207,0.0002322,53.2164,108.8384,58.6966,301.4253,6.2617e-05,7.08e-06,0.0,0 STARLINK-3227,1 49765U 21115AT  22333.54226104  .00000708  00000-0  62617-4 0  9999,2 49765  53.2164 108.8384 0002322  58.6966 301.4253 15.08832207 55100,6917.904,95.438,541.376,538.163,0.0
49765.0,STARLINK-3227,PAYLOAD,2022-11-29 14:36:14,15.0883314,0.0002349,53.2164,108.5414,54.0626,306.0583,6.1487e-05,6.900000000000003e-06,0.0,0 STARLINK-3227,1 49765U 21115AT  22333.60850149  .00000690  00000-0  61487-4 0  9992,2 49765  53.2164 108.5414 0002349  54.0626 306.0583 15.08833140 56221,6917.901,95.438,541.391,538.141,0.0
49765.0,STARLINK-3227,PAYLOAD,2022-11-30 08:05:30,15.08822232,0.0002537,53.2178,105.2741,55.3833,304.7398,-9.940000000000004e-05,-1.869e-05,0.0,0 STARLINK-3227,1 49765U 21115AT  22334.33716197 -.00001869  00000-0 -99400-4 0  9994,2 49765  53.2178 105.2741 0002537  55.3833 304.7398 15.08822232 56337,6917.935,95.439,541.555,538.045,0.0
49765.0,STARLINK-3227,PAYLOAD,2022-11-30 16:02:26,15.08821888,0.0002494,53.218,103.7867,59.7249,300.399,-9.6516e-05,-1.823e-05,0.0,0 STARLINK-3227,1 49765U 21115AT  22334.66836568 -.00001823  00000-0 -96516-4 0  9990,2 49765  53.2180 103.7867 0002494  59.7249 300.3990 15.08821888 55271,6917.936,95.439,541.526,538.075,0.0
